{
  "links" : {
    "next" : "https://api.nasa.gov/neo/rest/v1/feed?start_date=2007-09-16&end_date=2007-09-16&detailed=true&api_key=t0TVs3DtDT2H8Oy2Zy8m2eVrNsAVKAexjcZXUckd",
    "prev" : "https://api.nasa.gov/neo/rest/v1/feed?start_date=2007-09-14&end_date=2007-09-14&detailed=true&api_key=t0TVs3DtDT2H8Oy2Zy8m2eVrNsAVKAexjcZXUckd",
    "self" : "https://api.nasa.gov/neo/rest/v1/feed?start_date=2007-09-15&end_date=2007-09-15&detailed=true&api_key=t0TVs3DtDT2H8Oy2Zy8m2eVrNsAVKAexjcZXUckd"
  },
  "element_count" : 7,
  "near_earth_objects" : {
    "2007-09-15" : [ {
      "links" : {
        "self" : "https://api.nasa.gov/neo/rest/v1/neo/3760496?api_key=t0TVs3DtDT2H8Oy2Zy8m2eVrNsAVKAexjcZXUckd"
      },
      "neo_reference_id" : "3760496",
      "name" : "(2016 SH45)",
      "nasa_jpl_url" : "http://ssd.jpl.nasa.gov/sbdb.cgi?sstr=3760496",
      "absolute_magnitude_h" : 19.4,
      "estimated_diameter" : {
        "kilometers" : {
          "estimated_diameter_min" : 0.3503926411,
          "estimated_diameter_max" : 0.7835017643
        },
        "meters" : {
          "estimated_diameter_min" : 350.3926411083,
          "estimated_diameter_max" : 783.5017643338
        },
        "miles" : {
          "estimated_diameter_min" : 0.2177238258,
          "estimated_diameter_max" : 0.4868452748
        },
        "feet" : {
          "estimated_diameter_min" : 1149.5821926537,
          "estimated_diameter_max" : 2570.543928497
        }
      },
      "is_potentially_hazardous_asteroid" : false,
      "close_approach_data" : [ {
        "close_approach_date" : "2007-09-15",
        "epoch_date_close_approach" : 1189839600000,
        "relative_velocity" : {
          "kilometers_per_second" : "12.9178892171",
          "kilometers_per_hour" : "46504.4011814063",
          "miles_per_hour" : "28896.0263896355"
        },
        "miss_distance" : {
          "astronomical" : "0.4426524899",
          "lunar" : "172.1918182373",
          "kilometers" : "66219872",
          "miles" : "41147120"
        },
        "orbiting_body" : "Earth"
      } ],
      "orbital_data" : {
        "orbit_id" : "27",
        "orbit_determination_date" : "2017-04-06 08:23:31",
        "orbit_uncertainty" : "4",
        "minimum_orbit_intersection" : ".232081",
        "jupiter_tisserand_invariant" : "3.064",
        "epoch_osculation" : "2458000.5",
        "eccentricity" : ".5784477211776373",
        "semi_major_axis" : "2.750054781556269",
        "inclination" : "8.968897056824295",
        "ascending_node_longitude" : "100.7963042754587",
        "orbital_period" : "1665.752388132445",
        "perihelion_distance" : "1.15929186005138",
        "perihelion_argument" : "277.0636326545709",
        "aphelion_distance" : "4.340817703061158",
        "perihelion_time" : "2457696.024516386417",
        "mean_anomaly" : "65.80280171399328",
        "mean_motion" : ".2161185555337029",
        "equinox" : "J2000"
      }
    } ]
  }
}